{
  "links" : {
    "next" : "https://api.nasa.gov/neo/rest/v1/feed?start_date=2002-04-16&end_date=2002-04-16&detailed=true&api_key=t0TVs3DtDT2H8Oy2Zy8m2eVrNsAVKAexjcZXUckd",
    "prev" : "https://api.nasa.gov/neo/rest/v1/feed?start_date=2002-04-14&end_date=2002-04-14&detailed=true&api_key=t0TVs3DtDT2H8Oy2Zy8m2eVrNsAVKAexjcZXUckd",
    "self" : "https://api.nasa.gov/neo/rest/v1/feed?start_date=2002-04-15&end_date=2002-04-15&detailed=true&api_key=t0TVs3DtDT2H8Oy2Zy8m2eVrNsAVKAexjcZXUckd"
  },
  "element_count" : 3,
  "near_earth_objects" : {
    "2002-04-15" : [ {
      "links" : {
        "self" : "https://api.nasa.gov/neo/rest/v1/neo/3125003?api_key=t0TVs3DtDT2H8Oy2Zy8m2eVrNsAVKAexjcZXUckd"
      },
      "neo_reference_id" : "3125003",
      "name" : "(2002 JE9)",
      "nasa_jpl_url" : "http://ssd.jpl.nasa.gov/sbdb.cgi?sstr=3125003",
      "absolute_magnitude_h" : 21.2,
      "estimated_diameter" : {
        "kilometers" : {
          "estimated_diameter_min" : 0.1529519353,
          "estimated_diameter_max" : 0.3420109247
        },
        "meters" : {
          "estimated_diameter_min" : 152.9519353442,
          "estimated_diameter_max" : 342.0109247198
        },
        "miles" : {
          "estimated_diameter_min" : 0.095039897,
          "estimated_diameter_max" : 0.2125156703
        },
        "feet" : {
          "estimated_diameter_min" : 501.8108275547,
          "estimated_diameter_max" : 1122.0831222578
        }
      },
      "is_potentially_hazardous_asteroid" : true,
      "close_approach_data" : [ {
        "close_approach_date" : "2002-04-15",
        "epoch_date_close_approach" : 1018854000000,
        "relative_velocity" : {
          "kilometers_per_second" : "15.3166548345",
          "kilometers_per_hour" : "55139.9574043703",
          "miles_per_hour" : "34261.8251993989"
        },
        "miss_distance" : {
          "astronomical" : "0.0788435762",
          "lunar" : "30.6701526642",
          "kilometers" : "11794832",
          "miles" : "7328968.5"
        },
        "orbiting_body" : "Earth"
      } ],
      "orbital_data" : {
        "orbit_id" : "29",
        "orbit_determination_date" : "2017-04-06 09:15:11",
        "orbit_uncertainty" : "0",
        "minimum_orbit_intersection" : ".00488139",
        "jupiter_tisserand_invariant" : "5.686",
        "epoch_osculation" : "2458000.5",
        "eccentricity" : ".4166461567271588",
        "semi_major_axis" : "1.067897393652302",
        "inclination" : "8.830020810798137",
        "ascending_node_longitude" : "200.0636036521729",
        "orbital_period" : "403.0813613943241",
        "perihelion_distance" : ".6229620488081204",
        "perihelion_argument" : "255.4158405782897",
        "aphelion_distance" : "1.512832738496483",
        "perihelion_time" : "2457958.881175010447",
        "mean_anomaly" : "37.17060234293982",
        "mean_motion" : ".8931199367658712",
        "equinox" : "J2000"
      }
    }, {
      "links" : {
        "self" : "https://api.nasa.gov/neo/rest/v1/neo/3144153?api_key=t0TVs3DtDT2H8Oy2Zy8m2eVrNsAVKAexjcZXUckd"
      },
      "neo_reference_id" : "3144153",
      "name" : "(2002 XP37)",
      "nasa_jpl_url" : "http://ssd.jpl.nasa.gov/sbdb.cgi?sstr=3144153",
      "absolute_magnitude_h" : 20.4,
      "estimated_diameter" : {
        "kilometers" : {
          "estimated_diameter_min" : 0.2210828104,
          "estimated_diameter_max" : 0.4943561926
        },
        "meters" : {
          "estimated_diameter_min" : 221.0828103591,
          "estimated_diameter_max" : 494.3561926196
        },
        "miles" : {
          "estimated_diameter_min" : 0.137374447,
          "estimated_diameter_max" : 0.3071786018
        },
        "feet" : {
          "estimated_diameter_min" : 725.3373275385,
          "estimated_diameter_max" : 1621.9035709942
        }
      },
      "is_potentially_hazardous_asteroid" : false,
      "close_approach_data" : [ {
        "close_approach_date" : "2002-04-15",
        "epoch_date_close_approach" : 1018854000000,
        "relative_velocity" : {
          "kilometers_per_second" : "16.5723127889",
          "kilometers_per_hour" : "59660.3260402052",
          "miles_per_hour" : "37070.6064775931"
        },
        "miss_distance" : {
          "astronomical" : "0.4613772271",
          "lunar" : "179.4757385254",
          "kilometers" : "69021056",
          "miles" : "42887692"
        },
        "orbiting_body" : "Earth"
      } ],
      "orbital_data" : {
        "orbit_id" : "41",
        "orbit_determination_date" : "2017-01-02 06:16:53",
        "orbit_uncertainty" : "0",
        "minimum_orbit_intersection" : ".103703",
        "jupiter_tisserand_invariant" : "6.192",
        "epoch_osculation" : "2457800.5",
        "eccentricity" : ".3593845034177157",
        "semi_major_axis" : ".9551380284064013",
        "inclination" : "21.53021360309252",
        "ascending_node_longitude" : "265.9124293848221",
        "orbital_period" : "340.95544610612",
        "perihelion_distance" : ".6118762223721907",
        "perihelion_argument" : "317.5918636683135",
        "aphelion_distance" : "1.298399834440612",
        "perihelion_time" : "2457842.446858112424",
        "mean_anomaly" : "315.7101401578063",
        "mean_motion" : "1.055856429663694",
        "equinox" : "J2000"
      }
    }, {
      "links" : {
        "self" : "https://api.nasa.gov/neo/rest/v1/neo/2480922?api_key=t0TVs3DtDT2H8Oy2Zy8m2eVrNsAVKAexjcZXUckd"
      },
      "neo_reference_id" : "2480922",
      "name" : "480922 (2002 XP37)",
      "nasa_jpl_url" : "http://ssd.jpl.nasa.gov/sbdb.cgi?sstr=2480922",
      "absolute_magnitude_h" : 20.5,
      "estimated_diameter" : {
        "kilometers" : {
          "estimated_diameter_min" : 0.2111324448,
          "estimated_diameter_max" : 0.4721064988
        },
        "meters" : {
          "estimated_diameter_min" : 211.1324447897,
          "estimated_diameter_max" : 472.1064988055
        },
        "miles" : {
          "estimated_diameter_min" : 0.1311915784,
          "estimated_diameter_max" : 0.2933532873
        },
        "feet" : {
          "estimated_diameter_min" : 692.6917701639,
          "estimated_diameter_max" : 1548.9058855411
        }
      },
      "is_potentially_hazardous_asteroid" : false,
      "close_approach_data" : [ {
        "close_approach_date" : "2002-04-15",
        "epoch_date_close_approach" : 1018854000000,
        "relative_velocity" : {
          "kilometers_per_second" : "16.5723185354",
          "kilometers_per_hour" : "59660.3467274922",
          "miles_per_hour" : "37070.6193318687"
        },
        "miss_distance" : {
          "astronomical" : "0.4613773304",
          "lunar" : "179.4757843018",
          "kilometers" : "69021064",
          "miles" : "42887700"
        },
        "orbiting_body" : "Earth"
      } ],
      "orbital_data" : {
        "orbit_id" : "45",
        "orbit_determination_date" : "2017-04-06 09:18:54",
        "orbit_uncertainty" : "0",
        "minimum_orbit_intersection" : ".10426",
        "jupiter_tisserand_invariant" : "6.192",
        "epoch_osculation" : "2458000.5",
        "eccentricity" : ".3593456376036295",
        "semi_major_axis" : ".9551111008151322",
        "inclination" : "21.53033655672254",
        "ascending_node_longitude" : "265.908643376477",
        "orbital_period" : "340.9410277017988",
        "perihelion_distance" : ".6118960933104141",
        "perihelion_argument" : "317.5974780892046",
        "aphelion_distance" : "1.29832610831985",
        "perihelion_time" : "2457842.445886227924",
        "mean_anomaly" : "166.8895097239923",
        "mean_motion" : "1.055901081857684",
        "equinox" : "J2000"
      }
    } ]
  }
}